{
  "norad_id": 56957,
  "name": "ION SCV-011",
  "history": [
    {
      "epoch": "2026-03-28T11:24:30.658176Z",
      "apogee_km": 486.31514221932684,
      "perigee_km": 477.3576633489065,
      "latitude_deg": 3.8469299167543996e-05,
      "longitude_deg": -89.6962147408088,
      "height_km": 481.20402479460506,
      "semi_major_axis_km": 6859.973402784116,
      "eccentricity": 0.00065288,
      "inclination_deg": 98.137,
      "raan_deg": 267.3268,
      "arg_perigee_deg": 326.0493,
      "mean_anomaly_deg": 34.0326,
      "mean_motion_rev_day": 15.27985082
    },
    {
      "epoch": "2026-03-29T01:33:13.193856Z",
      "apogee_km": 486.2624869940955,
      "perigee_km": 477.3610174931837,
      "latitude_deg": -3.5142009920201737e-06,
      "longitude_deg": 58.18893843812168,
      "height_km": 481.3003486941707,
      "semi_major_axis_km": 6859.948752243639,
      "eccentricity": 0.0006488,
      "inclination_deg": 98.1369,
      "raan_deg": 267.9701,
      "arg_perigee_deg": 323.8627,
      "mean_anomaly_deg": 36.2171,
      "mean_motion_rev_day": 15.27993318
    },
    {
      "epoch": "2026-03-30T01:07:43.373856Z",
      "apogee_km": 486.1635453427152,
      "perigee_km": 477.3554382472503,
      "latitude_deg": -5.1261927244029676e-05,
      "longitude_deg": 64.66720285640311,
      "height_km": 481.4749792819263,
      "semi_major_axis_km": 6859.8964917949825,
      "eccentricity": 0.000642,
      "inclination_deg": 98.1367,
      "raan_deg": 269.0423,
      "arg_perigee_deg": 319.8832,
      "mean_anomaly_deg": 40.193,
      "mean_motion_rev_day": 15.28010779
    }
  ]
}